[{"OBJECT_NAME":"FALCONSAT-10","OBJECT_ID":"2023-174AM","EPOCH":"2026-03-09T16:51:34.085376","MEAN_MOTION":15.26670596,"ECCENTRICITY":0.00089318,"INCLINATION":97.3865,"RA_OF_ASC_NODE":145.7938,"ARG_OF_PERICENTER":169.5942,"MEAN_ANOMALY":190.5483,"EPHEMERIS_TYPE":0,"CLASSIFICATION_TYPE":"U","NORAD_CAT_ID":58291,"ELEMENT_SET_NO":999,"REV_AT_EPOCH":12958,"BSTAR":0.00025968794,"MEAN_MOTION_DOT":6.748e-5,"MEAN_MOTION_DDOT":0},{"OBJECT_NAME":"STARLINK-36479","OBJECT_ID":"2026-003U","EPOCH":"2026-03-09T11:03:24.547392","MEAN_MOTION":15.27597927,"ECCENTRICITY":2.488e-5,"INCLINATION":42.9952,"RA_OF_ASC_NODE":227.9371,"ARG_OF_PERICENTER":253.6948,"MEAN_ANOMALY":106.3876,"EPHEMERIS_TYPE":0,"CLASSIFICATION_TYPE":"U","NORAD_CAT_ID":67352,"ELEMENT_SET_NO":999,"REV_AT_EPOCH":879,"BSTAR":0.00098665614,"MEAN_MOTION_DOT":0.00027003,"MEAN_MOTION_DDOT":0}]
