FALCONSAT-10            
1 58291U 23174AM  26068.70247784  .00006748  00000+0  25969-3 0  9991
2 58291  97.3865 145.7938 0008932 169.5942 190.5483 15.26670596129582
STARLINK-36479          
1 67352U 26003U   26068.46070078  .00027003  00000+0  98666-3 0  9997
2 67352  42.9952 227.9371 0000248 253.6948 106.3876 15.27597927  8797
